{
    "links": {
        "self": "http://www.neowsapp.com/rest/v1/neo/3785923?api_key=iIulBulltgU6a56xZRHN4H3l9WmuAYTsLGpBGhQ2"
    },
    "id": "3785923",
    "neo_reference_id": "3785923",
    "name": "(2017 TU5)",
    "designation": "2017 TU5",
    "nasa_jpl_url": "http://ssd.jpl.nasa.gov/sbdb.cgi?sstr=3785923",
    "absolute_magnitude_h": 27.5,
    "estimated_diameter": {
        "kilometers": {
            "estimated_diameter_min": 0.008405334,
            "estimated_diameter_max": 0.0187948982
        },
        "meters": {
            "estimated_diameter_min": 8.4053340207,
            "estimated_diameter_max": 18.7948982439
        },
        "miles": {
            "estimated_diameter_min": 0.0052228308,
            "estimated_diameter_max": 0.0116786047
        },
        "feet": {
            "estimated_diameter_min": 27.5765560686,
            "estimated_diameter_max": 61.6630539546
        }
    },
    "is_potentially_hazardous_asteroid": false,
    "close_approach_data": [
        {
            "close_approach_date": "2006-06-12",
            "close_approach_date_full": "2006-Jun-12 04:26",
            "epoch_date_close_approach": 1150086360000,
            "relative_velocity": {
                "kilometers_per_second": "20.0956979953",
                "kilometers_per_hour": "72344.5127829684",
                "miles_per_hour": "44952.0668456172"
            },
            "miss_distance": {
                "astronomical": "0.4779534978",
                "lunar": "185.9239106442",
                "kilometers": "71500825.229929686",
                "miles": "44428552.6185182268"
            },
            "orbiting_body": "Earth"
        },
        {
            "close_approach_date": "2009-11-07",
            "close_approach_date_full": "2009-Nov-07 01:11",
            "epoch_date_close_approach": 1257556260000,
            "relative_velocity": {
                "kilometers_per_second": "18.0998413582",
                "kilometers_per_hour": "65159.4288893846",
                "miles_per_hour": "40487.5351340735"
            },
            "miss_distance": {
                "astronomical": "0.3785716757",
                "lunar": "147.2643818473",
                "kilometers": "56633516.327050759",
                "miles": "35190435.2434641142"
            },
            "orbiting_body": "Earth"
        },
        {
            "close_approach_date": "2017-10-13",
            "close_approach_date_full": "2017-Oct-13 10:30",
            "epoch_date_close_approach": 1507890600000,
            "relative_velocity": {
                "kilometers_per_second": "7.7345439372",
                "kilometers_per_hour": "27844.3581738631",
                "miles_per_hour": "17301.4013330873"
            },
            "miss_distance": {
                "astronomical": "0.0175782935",
                "lunar": "6.8379561715",
                "kilometers": "2629675.265834845",
                "miles": "1634004.440397061"
            },
            "orbiting_body": "Earth"
        }
    ],
    "orbital_data": {
        "orbit_id": "4",
        "orbit_determination_date": "2018-01-12 06:22:30",
        "first_observation_date": "2017-10-15",
        "last_observation_date": "2017-10-19",
        "data_arc_in_days": 4,
        "observations_used": 28,
        "orbit_uncertainty": "7",
        "minimum_orbit_intersection": ".0138769",
        "jupiter_tisserand_invariant": "4.782",
        "epoch_osculation": "2459000.5",
        "eccentricity": ".3017970907376832",
        "semi_major_axis": "1.365007188764122",
        "inclination": "6.88363291785239",
        "ascending_node_longitude": "203.7376077974274",
        "orbital_period": "582.5065789530079",
        "perihelion_distance": ".9530519903590863",
        "perihelion_argument": "135.3897009676674",
        "aphelion_distance": "1.776962387169158",
        "perihelion_time": "2459170.339976663738",
        "mean_anomaly": "255.0357063625918",
        "mean_motion": ".6180187709588805",
        "equinox": "J2000",
        "orbit_class": {
            "orbit_class_type": "APO",
            "orbit_class_description": "Near-Earth asteroid orbits which cross the Earth’s orbit similar to that of 1862 Apollo",
            "orbit_class_range": "a (semi-major axis) > 1.0 AU; q (perihelion) < 1.017 AU"
        }
    },
    "is_sentry_object": false
}